NORAD_CAT_ID,OBJECT_NAME,OBJECT_TYPE,EPOCH,MEAN_MOTION,ECCENTRICITY,INCLINATION,RA_OF_ASC_NODE,ARG_OF_PERICENTER,MEAN_ANOMALY,BSTAR,MEAN_MOTION_DOT,MEAN_MOTION_DDOT,TLE_LINE0,TLE_LINE1,TLE_LINE2,SEMIMAJOR_AXIS,PERIOD,APOGEE,PERIGEE,DECAYED
55421.0,STARLINK-5598,PAYLOAD,2024-07-21 06:19:13,14.98329646,0.0002806,70.0,148.2461,265.7253,94.3585,0.00012728,1.426e-05,0.0,0 STARLINK-5598,1 55421U 23014AG  24203.26334541  .00001426  00000-0  12728-3 0  9992,2 55421  70.0000 148.2461 0002806 265.7253  94.3585 14.98329646 82228,6950.194,96.107,574.009,570.109,0.0
55421.0,STARLINK-5598,PAYLOAD,2024-07-21 20:44:27,14.98244499,0.0002846,70.0002,146.732,258.9667,101.1172,0.0014281,0.0001695,0.0,0 STARLINK-5598,1 55421U 23014AG  24203.86420350  .00016950  00000-0  14281-2 0  9995,2 55421  70.0002 146.7320 0002846 258.9667 101.1172 14.98244499 82315,6950.457,96.112,574.3,570.344,0.0
55421.0,STARLINK-5598,PAYLOAD,2024-07-21 22:20:34,14.98321112,0.0002848,70.0,146.5631,267.7896,92.2937,0.00011007,1.22e-05,0.0,0 STARLINK-5598,1 55421U 23014AG  24203.93095084  .00001220  00000-0  11007-3 0  9993,2 55421  70.0000 146.5631 0002848 267.7896  92.2937 14.98321112 82328,6950.22,96.108,574.065,570.106,0.0
55421.0,STARLINK-5598,PAYLOAD,2024-07-22 04:45:06,14.9833116,0.0002724,70.0004,145.8909,266.6456,93.4391,7.2979e-06,-6e-08,0.0,0 STARLINK-5598,1 55421U 23014AG  24204.19798717 -.00000006  00000-0  72979-5 0  9994,2 55421  70.0004 145.8909 0002724 266.6456  93.4391 14.98331160 82360,6950.189,96.107,573.948,570.161,0.0
55421.0,STARLINK-5598,PAYLOAD,2024-07-22 06:21:14,14.98332035,0.0002718,70.0004,145.7226,266.6068,93.478,1.7385e-05,1.14e-06,0.0,0 STARLINK-5598,1 55421U 23014AG  24204.26474630  .00000114  00000-0  17385-4 0  9995,2 55421  70.0004 145.7226 0002718 266.6068  93.4780 14.98332035 82378,6950.187,96.107,573.941,570.163,0.0
55421.0,STARLINK-5598,PAYLOAD,2024-07-22 22:22:34,14.9833513,0.0002766,70.0002,144.0383,269.0585,91.0257,2.0849e-05,1.56e-06,0.0,0 STARLINK-5598,1 55421U 23014AG  24204.93234310  .00000156  00000-0  20849-4 0  9993,2 55421  70.0002 144.0383 0002766 269.0585  91.0257 14.98335130 82479,6950.177,96.107,573.964,570.12,0.0
55421.0,STARLINK-5598,PAYLOAD,2024-07-23 04:47:06,14.98341382,0.0002683,70.0003,143.3652,268.891,91.1942,9.4131e-05,1.031e-05,0.0,0 STARLINK-5598,1 55421U 23014AG  24205.19937596  .00001031  00000-0  94131-4 0  9996,2 55421  70.0003 143.3652 0002683 268.8910  91.1942 14.98341382 82511,6950.158,96.106,573.887,570.158,0.0
55421.0,STARLINK-5598,PAYLOAD,2024-07-23 12:47:47,14.98326244,0.0002084,70.0006,142.5234,274.1306,85.9615,-6.2784e-05,-8.42e-06,0.0,0 STARLINK-5598,1 55421U 23014AG  24205.53319053 -.00000842  00000-0 -62784-4 0  9996,2 55421  70.0006 142.5234 0002084 274.1306  85.9615 14.98326244 82568,6950.205,96.107,573.518,570.621,0.0
55421.0,STARLINK-5598,PAYLOAD,2024-07-23 22:24:36,14.98322857,0.0002278,70.0,141.5147,267.1869,92.903,-7.3286e-05,-9.67e-06,0.0,0 STARLINK-5598,1 55421U 23014AG  24205.93375316 -.00000967  00000-0 -73286-4 0  9991,2 55421  70.0000 141.5147 0002278 267.1869  92.9030 14.98322857 82627,6950.215,96.107,573.663,570.497,0.0
55421.0,STARLINK-5598,PAYLOAD,2024-07-24 04:49:08,14.9831788,0.000244,70.0008,140.8411,266.0833,94.0047,-0.00010465,-1.341e-05,0.0,0 STARLINK-5598,1 55421U 23014AG  24206.20079802 -.00001341  00000-0 -10465-3 0  9999,2 55421  70.0008 140.8411 0002440 266.0833  94.0047 14.98317880 82666,6950.23,96.108,573.791,570.4,0.0
55421.0,STARLINK-5598,PAYLOAD,2024-07-24 19:14:20,14.98338074,0.0002766,70.0,139.3272,264.6769,95.4074,-2.2194e-05,-3.58e-06,0.0,0 STARLINK-5598,1 55421U 23014AG  24206.80162353 -.00000358  00000-0 -22194-4 0  9999,2 55421  70.0000 139.3272 0002766 264.6769  95.4074 14.98338074 82752,6950.168,96.106,573.955,570.111,0.0
55421.0,STARLINK-5598,PAYLOAD,2024-07-24 22:26:36,14.98339303,0.0002646,70.0004,138.9903,264.3426,95.7432,5.9833e-06,-2.2e-07,0.0,0 STARLINK-5598,1 55421U 23014AG  24206.93514143 -.00000022  00000-0  59833-5 0  9999,2 55421  70.0004 138.9903 0002646 264.3426  95.7432 14.98339303 82775,6950.164,96.106,573.868,570.19,0.0
55421.0,STARLINK-5598,PAYLOAD,2024-07-25 04:51:08,14.98341377,0.0002457,70.0009,138.3167,259.0491,101.0392,7.0756e-05,7.52e-06,0.0,0 STARLINK-5598,1 55421U 23014AG  24207.20217678  .00000752  00000-0  70756-4 0  9998,2 55421  70.0009 138.3167 0002457 259.0491 101.0392 14.98341377 82814,6950.158,96.106,573.73,570.315,0.0
55421.0,STARLINK-5598,PAYLOAD,2024-07-25 19:16:21,14.98324416,0.0002098,70.0019,136.8017,259.5053,100.587,0.00011668,1.299e-05,0.0,0 STARLINK-5598,1 55421U 23014AG  24207.80302581  .00001299  00000-0  11668-3 0  9995,2 55421  70.0019 136.8017 0002098 259.5053 100.5870 14.98324416 82902,6950.21,96.107,573.533,570.617,0.0
55421.0,STARLINK-5598,PAYLOAD,2024-07-25 22:28:37,14.98321928,0.0002205,70.0023,136.4656,257.6546,102.4366,0.00011802,1.315e-05,0.0,0 STARLINK-5598,1 55421U 23014AG  24207.93654717  .00001315  00000-0  11802-3 0  9999,2 55421  70.0023 136.4656 0002205 257.6546 102.4366 14.98321928 82926,6950.218,96.108,573.615,570.55,0.0
55421.0,STARLINK-5598,PAYLOAD,2024-07-26 04:53:10,14.98323252,0.0002933,70.0,135.7901,270.6302,89.4521,8.0199e-05,8.64e-06,0.0,0 STARLINK-5598,1 55421U 23014AG  24208.20358910  .00000864  00000-0  80199-4 0  9990,2 55421  70.0000 135.7901 0002933 270.6302  89.4521 14.98323252 82962,6950.214,96.107,574.117,570.04,0.0
55421.0,STARLINK-5598,PAYLOAD,2024-07-26 12:53:50,14.98331768,0.000297,70.0002,134.9492,271.4728,88.609,2.1417e-05,1.63e-06,0.0,0 STARLINK-5598,1 55421U 23014AG  24208.53738558  .00000163  00000-0  21417-4 0  9996,2 55421  70.0002 134.9492 0002970 271.4728  88.6090 14.98331768 83012,6950.187,96.107,574.117,569.988,0.0
55421.0,STARLINK-5598,PAYLOAD,2024-07-27 04:55:09,14.98345948,0.0002927,70.0001,133.2659,270.478,89.6044,5.8287e-05,6.03e-06,0.0,0 STARLINK-5598,1 55421U 23014AG  24209.20497148  .00000603  00000-0  58287-4 0  9992,2 55421  70.0001 133.2659 0002927 270.4780  89.6044 14.98345948 83113,6950.144,96.106,574.043,569.974,0.0
55421.0,STARLINK-5598,PAYLOAD,2024-07-27 22:32:39,14.98317342,0.0003134,69.9996,131.4133,271.9979,88.0821,-1.5439e-05,-2.77e-06,0.0,0 STARLINK-5598,1 55421U 23014AG  24209.93935014 -.00000277  00000-0 -15439-4 0  9992,2 55421  69.9996 131.4133 0003134 271.9979  88.0821 14.98317342 83222,6950.232,96.108,574.275,569.919,0.0
55421.0,STARLINK-5598,PAYLOAD,2024-07-28 04:57:12,14.98322131,0.0003189,69.9996,130.741,273.206,86.8734,-3.4188e-05,-5.01e-06,0.0,0 STARLINK-5598,1 55421U 23014AG  24210.20638908 -.00000501  00000-0 -34188-4 0  9998,2 55421  69.9996 130.7410 0003189 273.2060  86.8734 14.98322131 83263,6950.217,96.108,574.299,569.866,0.0
55421.0,STARLINK-5598,PAYLOAD,2024-07-28 20:58:32,14.98333535,0.0003122,69.9997,129.0582,272.8984,87.1818,-0.00012405,-1.573e-05,0.0,0 STARLINK-5598,1 55421U 23014AG  24210.87398569 -.00001573  00000-0 -12405-3 0  9994,2 55421  69.9997 129.0582 0003122 272.8984  87.1818 14.98333535 83360,6950.182,96.107,574.217,569.877,0.0
55421.0,STARLINK-5598,PAYLOAD,2024-07-28 22:34:40,14.98333524,0.0003121,69.9997,128.8898,272.9352,87.145,-0.00012056,-1.531e-05,0.0,0 STARLINK-5598,1 55421U 23014AG  24210.94074550 -.00001531  00000-0 -12056-3 0  9999,2 55421  69.9997 128.8898 0003121 272.9352  87.1450 14.98333524 83377,6950.182,96.107,574.216,569.878,0.0
55421.0,STARLINK-5598,PAYLOAD,2024-07-29 11:23:44,14.98328249,0.0003047,69.9999,127.5435,271.9762,88.1048,7.5969e-05,8.14e-06,0.0,0 STARLINK-5598,1 55421U 23014AG  24211.47482217  .00000814  00000-0  75969-4 0  9995,2 55421  69.9999 127.5435 0003047 271.9762  88.1048 14.98328249 83454,6950.198,96.107,574.181,569.946,0.0
55421.0,STARLINK-5598,PAYLOAD,2024-07-29 21:00:33,14.98326531,0.0003008,70.0,126.5338,271.9341,88.1473,0.00010907,1.209e-05,0.0,0 STARLINK-5598,1 55421U 23014AG  24211.87538275  .00001209  00000-0  10907-3 0  9994,2 55421  70.0000 126.5338 0003008 271.9341  88.1473 14.98326531 83512,6950.204,96.107,574.159,569.978,0.0
55421.0,STARLINK-5598,PAYLOAD,2024-07-29 22:36:41,14.98326941,0.0003004,70.0,126.3655,272.0069,88.0746,0.0001116,1.239e-05,0.0,0 STARLINK-5598,1 55421U 23014AG  24211.94214257  .00001239  00000-0  11160-3 0  9998,2 55421  70.0000 126.3655 0003004 272.0069  88.0746 14.98326941 83525,6950.202,96.107,574.155,569.98,0.0
55421.0,STARLINK-5598,PAYLOAD,2024-07-30 11:25:45,14.98329461,0.0002939,70.0,125.0192,270.8357,89.2465,0.00010277,1.133e-05,0.0,0 STARLINK-5598,1 55421U 23014AG  24212.47622099  .00001133  00000-0  10277-3 0  9995,2 55421  70.0000 125.0192 0002939 270.8357  89.2465 14.98329461 83609,6950.195,96.107,574.102,570.017,0.0
55421.0,STARLINK-5598,PAYLOAD,2024-07-30 22:38:41,14.98350277,0.0002965,70.0001,123.8408,270.103,89.9789,-0.00027946,-3.428e-05,0.0,0 STARLINK-5598,1 55421U 23014AG  24212.94353793 -.00003428  00000-0 -27946-3 0  9991,2 55421  70.0001 123.8408 0002965 270.1030  89.9789 14.98350277 83678,6950.13,96.106,574.056,569.934,0.0
55421.0,STARLINK-5598,PAYLOAD,2024-07-31 03:27:05,14.98335931,0.0002833,70.0001,123.3358,268.7105,91.3729,4.1202e-05,3.99e-06,0.0,0 STARLINK-5598,1 55421U 23014AG  24213.14381723  .00000399  00000-0  41202-4 0  9992,2 55421  70.0001 123.3358 0002833 268.7105  91.3729 14.98335931 83702,6950.175,96.107,574.009,570.071,0.0
55421.0,STARLINK-5598,PAYLOAD,2024-07-31 11:27:47,14.98325026,0.0002734,69.9999,122.4943,269.4809,90.6036,-9.6015e-05,-1.238e-05,0.0,0 STARLINK-5598,1 55421U 23014AG  24213.47762792 -.00001238  00000-0 -96015-4 0  9994,2 55421  69.9999 122.4943 0002734 269.4809  90.6036 14.98325026 83756,6950.208,96.107,573.973,570.173,0.0
55421.0,STARLINK-5598,PAYLOAD,2024-07-31 22:40:43,14.98321343,0.000282,70.0,121.3156,266.4405,93.6431,-0.00012581,-1.593e-05,0.0,0 STARLINK-5598,1 55421U 23014AG  24213.94495225 -.00001593  00000-0 -12581-3 0  9999,2 55421  70.0000 121.3156 0002820 266.4405  93.6431 14.98321343 83829,6950.22,96.108,574.045,570.125,0.0
